QIANFAN-89              
1 63175U 25046S   25245.92655919  .00000251  00000+0  36998-3 0  9998
2 63175  88.9858 330.4427 0017942  62.9534 297.3446 13.50974068 33795
QIANFAN-90              
1 63176U 25046T   25245.88130394  .00000203  00000+0  29518-3 0  9996
2 63176  88.9858 330.4196 0014858  62.6242 297.6419 13.50973096 33800
